GLOBALSTAR M068 [P]     
1 32266U 07048D   16032.53449876 -.00000091  00000-0  71528-4 0  9994
2 32266  51.9894 296.8953 0001336  83.9082 333.8090 12.62673231385322
GLOBALSTAR M079 [+]     
1 37188U 10054A   16032.74490241 -.00000107  00000-0 -18472-4 0  9996
2 37188  52.0040 121.2461 0000659 131.4848  42.8320 12.62269546244794
GLOBALSTAR M074 [+]     
1 37189U 10054B   16033.22716676 -.00000108  00000-0 -21058-4 0  9999
2 37189  52.0017 119.7277 0000688 137.9566 248.2236 12.62273813244853
GLOBALSTAR M076 [+]     
1 37190U 10054C   16032.46692626 -.00000103  00000-0  49679-5 0  9998
2 37190  52.0029 121.8485 0001263 170.2098 269.3864 12.62275359244761
GLOBALSTAR M077 [+]     
1 37191U 10054D   16031.62263943 -.00000101  00000-0  14450-4 0  9998
2 37191  52.0077  80.4430 0000701 107.6312  61.3801 12.62266820244937
GLOBALSTAR M075 [+]     
1 37192U 10054E   16032.83318443 -.00000099  00000-0  25536-4 0  9992
2 37192  51.9937 165.0167 0001133  87.1766  73.5358 12.62261668244042
GLOBALSTAR M073 [+]     
1 37193U 10054F   16033.54216417 -.00000106  00000-0 -13072-4 0  9992
2 37193  52.0062  74.0607 0000280 131.3030  32.7523 12.62271051245645
GLOBALSTAR M083 [+]     
1 37739U 11033A   16033.47077223 -.00000098  00000-0  34750-4 0  9993
2 37739  51.9871  27.6343 0000312  24.1979 145.7775 12.62258545214963
GLOBALSTAR M088 [+]     
1 37740U 11033B   16032.53108718 -.00000099  00000-0  28519-4 0  9992
2 37740  51.9740 298.7722 0000939  63.7186 352.9683 12.62276672210323
GLOBALSTAR M091 [+]     
1 37741U 11033C   16032.18327600 -.00000087  00000-0  92330-4 0  9996
2 37741  51.9981 257.3409 0000752  66.3202  87.0879 12.62269004211038
GLOBALSTAR M085 [+]     
1 37742U 11033D   16032.96544241 -.00000088  00000-0  88645-4 0  9990
2 37742  51.9842 209.0230 0000949  78.5925  87.6515 12.62268511211873
GLOBALSTAR M081 [+]     
1 37743U 11033E   16032.56229079 -.00000090  00000-0  76908-4 0  9998
2 37743  51.9930 210.8854 0001306  93.9974 308.1850 12.62268508211865
GLOBALSTAR M089 [+]     
1 37744U 11033F   16032.87675817 -.00000103  00000-0  34579-5 0  9992
2 37744  51.9920 164.8402 0001087 130.3086  47.6412 12.62265913212618
GLOBALSTAR M084 [+]     
1 38040U 11080A   16032.50242904 -.00000105  00000-0 -81144-5 0  9994
2 38040  52.0019  31.5404 0000351  72.0794 104.3369 12.62274708190576
GLOBALSTAR M080 [+]     
1 38041U 11080B   16032.75245189 -.00000103  00000-0  18622-5 0  9998
2 38041  52.0071  31.0928 0000191 204.7061 206.1762 12.62269295190599
GLOBALSTAR M082 [+]     
1 38042U 11080C   16033.18707671 -.00000095  00000-0  47203-4 0  9992
2 38042  52.0096 344.9637 0000486  28.1144  75.5770 12.62269530191384
GLOBALSTAR M092 [+]     
1 38043U 11080D   16032.53259773 -.00000107  00000-0 -17796-4 0  9995
2 38043  52.0089  77.0507 0000756 102.5798  62.9020 12.62265099189795
GLOBALSTAR M090 [+]     
1 38044U 11080E   16032.42567225 -.00000084  00000-0  10878-3 0  9994
2 38044  51.9905 345.4526 0000225  34.5225 118.7107 12.62268884191271
GLOBALSTAR M086 [+]     
1 38045U 11080F   16032.83210725 -.00000094  00000-0  56844-4 0  9995
2 38045  51.9915 344.5998 0000300  38.9302 342.0186 12.62263592191331
GLOBALSTAR M097 [+]     
1 39072U 13005A   16032.76306255 -.00000093  00000-0  57353-4 0  9996
2 39072  52.0031 255.7680 0000670  94.9675 265.1268 12.62261853138558
GLOBALSTAR M093 [+]     
1 39073U 13005B   16033.43609260 -.00000091  00000-0  69652-4 0  9997
2 39073  51.9792 252.4224 0001158 124.3689 235.7287 12.62269042138646
GLOBALSTAR M094 [+]     
1 39074U 13005C   16032.50083908 -.00000091  00000-0  70472-4 0  9992
2 39074  51.9947 166.3199 0000891 106.4060 253.6905 12.62265144140020
GLOBALSTAR M096 [+]     
1 39075U 13005D   16032.65175779 -.00000093  00000-0  57986-4 0  9994
2 39075  52.0047 211.5588 0001496  47.3715 312.7278 12.62273919139297
GLOBALSTAR M078 [+]     
1 39076U 13005E   16032.79536271 -.00000093  00000-0  58025-4 0  9993
2 39076  51.9897 299.7314 0000564  58.8608 301.2314 12.62269572137806
GLOBALSTAR M095 [+]     
1 39077U 13005F   16033.13239321 -.00000100  00000-0  21762-4 0  9996
2 39077  51.9806 298.2170 0000682  40.1491 319.9426 12.62276198137853
